METEOSAT-9 (MSG-2)      
1 28912U 05049B   24006.79065391  .00000148  00000+0  00000+0 0  9993
2 28912   7.3124  62.2052 0000254 237.4928 136.5269  1.00268268 66102
EWS-G1 (GOES 13)        
1 29155U 06018A   24006.88768428 -.00000156  00000+0  00000+0 0  9991
2 29155   2.2007  87.2110 0087638 248.1337 264.5596  0.99158975 34427
DMSP 5D-3 F17 (USA 191) 
1 29522U 06050A   24007.47580852  .00000209  00000+0  13165-3 0  9992
2 29522  98.7490  21.3638 0010929  82.0411 278.2002 14.14367536886338
FENGYUN 3A              
1 32958U 08026A   24007.49501583  .00000168  00000+0  10068-3 0  9993
2 32958  98.5845 319.4820 0008743 172.0945 188.0370 14.18989869809024
FENGYUN 2E              
1 33463U 08066A   24006.65556659 -.00000183  00000+0  00000+0 0  9999
2 33463   7.1794  61.5150 0001195 294.0711  72.6594  1.00278090 55153
NOAA 19                 
1 33591U 09005A   24007.42347663  .00000225  00000+0  14530-3 0  9997
2 33591  99.0730  61.3409 0014238  31.8126 328.3903 14.12900591768789
GOES 14                 
1 35491U 09033A   24006.68837417 -.00000037  00000+0  00000+0 0  9992
2 35491   0.1035 242.1386 0000129  45.3273 317.5244  1.00272324 53167
DMSP 5D-3 F18 (USA 210) 
1 35951U 09057A   24007.50970792  .00000336  00000+0  20009-3 0  9991
2 35951  98.7944 345.2242 0010097 267.8284  92.1733 14.13957395733513
EWS-G2 (GOES 15)        
1 36411U 10008A   24007.08026559  .00000065  00000+0  00000+0 0  9991
2 36411   0.1086 266.4697 0005755 357.3975 292.6103  1.00275802 50691
COMS 1                  
1 36744U 10032A   24006.95034066 -.00000318  00000+0  00000+0 0  9996
2 36744   2.5206  86.8747 0000810 215.0628 274.4058  1.00271711 49704
FENGYUN 3B              
1 37214U 10059A   24007.58273896  .00000117  00000+0  84847-4 0  9996
2 37214  99.0716  33.2928 0022092 186.8002 283.2596 14.14426683681401
SUOMI NPP               
1 37849U 11061A   24007.49230639  .00000109  00000+0  72357-4 0  9996
2 37849  98.7261 307.9120 0001396  69.4343 290.6983 14.19538882631923
FENGYUN 2F              
1 38049U 12002A   24006.68386551 -.00000334  00000+0  00000+0 0  9992
2 38049   5.1889  74.7336 0001864  33.8421 355.4200  1.00278472 43936
METEOSAT-10 (MSG-3)     
1 38552U 12035B   24006.85322326  .00000019  00000+0  00000+0 0  9995
2 38552   2.6049  59.3793 0000818 234.3163 119.3749  1.00272410 41906
METOP-B                 
1 38771U 12049A   24007.42115561  .00000143  00000+0  85156-4 0  9996
2 38771  98.6530  68.0929 0001621 112.5585 247.5764 14.21449090586569
FENGYUN 3C              
1 39260U 13052A   24007.51307414  .00000124  00000+0  83058-4 0  9993
2 39260  98.4266  15.7213 0012196  75.2287 285.0239 14.16128551532447
METEOR-M 2              
1 40069U 14037A   24007.49413400  .00000142  00000+0  84790-4 0  9990
2 40069  98.4294   9.0353 0006873 105.4416 254.7522 14.20867405492663
HIMAWARI-8              
1 40267U 14060A   24006.95277729 -.00000247  00000+0  00000+0 0  9992
2 40267   0.0352 156.4300 0000908 139.8553 293.3854  1.00269935 33916
FENGYUN 2G              
1 40367U 14090A   24007.44601882 -.00000279  00000+0  00000+0 0  9997
2 40367   3.3748  83.3996 0001010  14.8924 268.5714  1.00274644 33091
METEOSAT-11 (MSG-4)     
1 40732U 15034A   24007.13799326  .00000090  00000+0  00000+0 0  9999
2 40732   1.0040  63.0963 0002716 196.6753 265.7053  1.00263118 31063
ELEKTRO-L 2             
1 41105U 15074A   24007.06512362 -.00000092  00000+0  00000+0 0  9996
2 41105   4.4267  81.4190 0003241 193.0727 200.6273  1.00272066 29575
HIMAWARI-9              
1 41836U 16064A   24006.95277729 -.00000246  00000+0  00000+0 0  9990
2 41836   0.0177 288.3656 0000554 359.1104 302.2964  1.00273718 26355
GOES 16                 
1 41866U 16071A   24007.12473420 -.00000220  00000+0  00000+0 0  9999
2 41866   0.0687 244.0115 0001132  87.3780 104.4906  1.00270595 26152
FENGYUN 4A              
1 41882U 16077A   24007.01717411 -.00000300  00000+0  00000+0 0  9991
2 41882   0.0570  44.0892 0005857 353.3586 179.2542  1.00263761 26039
CYGFM05                 
1 41884U 16078A   24007.06863238  .00005813  00000+0  23891-3 0  9998
2 41884  34.9532 244.5541 0011781 167.3791 192.7220 15.23449177391414
CYGFM04                 
1 41885U 16078B   24006.75518821  .00006219  00000+0  24960-3 0  9998
2 41885  34.9469 232.0405 0010779 187.8688 172.1859 15.24241516391343
CYGFM02                 
1 41886U 16078C   24007.06406009  .00006536  00000+0  26191-3 0  9998
2 41886  34.9549 232.5626 0010891 181.0616 179.0077 15.24282925391544
CYGFM01                 
1 41887U 16078D   24007.08684948  .00005804  00000+0  24042-3 0  9991
2 41887  34.9495 247.8857 0012029 165.4866 194.6195 15.23187459391378
CYGFM08                 
1 41888U 16078E   24006.93277376  .00006069  00000+0  24640-3 0  9996
2 41888  34.9463 238.3930 0011398 181.4607 178.6075 15.23855726391390
CYGFM07                 
1 41890U 16078G   24006.75541378  .00006184  00000+0  24755-3 0  9990
2 41890  34.9491 231.5637 0010385 185.5835 174.4764 15.24332183391359
CYGFM03                 
1 41891U 16078H   24007.04496448  .00006151  00000+0  24674-3 0  9995
2 41891  34.9511 230.7771 0009496 185.4989 174.5622 15.24275601391538
FENGYUN 3D              
1 43010U 17072A   24007.44673304  .00000123  00000+0  80216-4 0  9995
2 43010  98.8898 321.3565 0002536  81.2389 278.9073 14.19263345318479
NOAA 20                 
1 43013U 17073A   24007.45683750  .00000100  00000+0  68187-4 0  9994
2 43013  98.7340 307.8237 0000597  73.9289 286.1952 14.19558903317956
GOES 17                 
1 43226U 18022A   24006.83225080 -.00000062  00000+0  00000+0 0  9997
2 43226   0.0417 187.7790 0001597  80.2815  32.7815  1.00271892 21476
FENGYUN 2H              
1 43491U 18050A   24006.79735466 -.00000103  00000+0  00000+0 0  9997
2 43491   0.7214  88.3054 0000789   3.5923  20.3985  1.00273021 20499
METOP-C                 
1 43689U 18087A   24007.45899044  .00000148  00000+0  87465-4 0  9996
2 43689  98.7049  68.9155 0002802 163.2675 196.8595 14.21490337268143
GEO-KOMPSAT-2A          
1 43823U 18100A   24001.76517744 -.00000327  00000+0  00000+0 0  9999
2 43823   0.0465 143.0620 0000399 249.7528 111.8038  1.00270456 18636
METEOR-M2 2             
1 44387U 19038A   24007.45706155  .00000056  00000+0  44087-4 0  9990
2 44387  98.8054 336.2425 0002327  76.2901 283.8536 14.23839775234379
ARKTIKA-M 1             
1 47719U 21016A   24006.24921471  .00000230  00000+0  00000+0 0  9993
2 47719  63.1443 170.1579 6898133 269.1145  18.1422  2.00602452 20873
FENGYUN 3E              
1 49008U 21062A   24007.46601108  .00000039  00000+0  39028-4 0  9998
2 49008  98.7287  10.9483 0002410 118.3660 241.7760 14.19720585130048
GOES 18                 
1 51850U 22021A   24003.22173814  .00000119  00000+0  00000+0 0  9992
2 51850   0.0308 196.7644 0000425  52.4691 155.9337  1.00272205  6791
NOAA 21 (JPSS-2)        
1 54234U 22150A   24007.12114433  .00000105  00000+0  70417-4 0  9998
2 54234  98.7375 307.0457 0000839 104.8505 255.2764 14.19555552 59982
METEOSAT-12 (MTG-I1)    
1 54743U 22170C   24006.85244006 -.00000003  00000+0  00000+0 0  9998
2 54743   0.3979 350.3847 0001523 266.9409 151.9039  1.00271605  4037
TIANMU-1 03             
1 55973U 23039A   24007.46250068  .00006790  00000+0  29563-3 0  9999
2 55973  97.4472 158.9641 0012237 320.5803  39.4541 15.22485640 44229
TIANMU-1 04             
1 55974U 23039B   24007.44443712  .00007143  00000+0  31097-3 0  9996
2 55974  97.4393 158.6804 0009197 321.9213  38.1372 15.22498696 44213
TIANMU-1 05             
1 55975U 23039C   24007.42968429  .00007594  00000+0  33082-3 0  9998
2 55975  97.4441 158.8849 0005164 317.6240  42.4597 15.22476624 44204
TIANMU-1 06             
1 55976U 23039D   24007.47959733  .00007156  00000+0  31198-3 0  9992
2 55976  97.4455 159.0206 0004649 320.8607  39.2292 15.22475072 44213
METEOR-M2 3             
1 57166U 23091A   24007.49361406  .00000018  00000+0  27241-4 0  9994
2 57166  98.7386  63.4285 0003203 227.8652 132.2255 14.23864061 27617
TIANMU-1 07             
1 57399U 23101A   24007.44823905  .00004734  00000+0  25741-3 0  9997
2 57399  97.3886  69.2083 0005701  45.5094 314.6603 15.14928416 25937
TIANMU-1 08             
1 57400U 23101B   24007.41652778  .00003858  00000+0  21042-3 0  9991
2 57400  97.3876  69.0759 0008273  43.6367 316.5518 15.14917609 25912
TIANMU-1 09             
1 57401U 23101C   24007.46401128  .00004175  00000+0  22740-3 0  9997
2 57401  97.3830  69.0630 0008389  38.3875 321.7953 15.14919296 25920
TIANMU-1 10             
1 57402U 23101D   24007.43045866  .00004342  00000+0  23575-3 0  9991
2 57402  97.3912  69.1354 0011008  38.1160 322.0849 15.14989238 25913
FENGYUN 3F              
1 57490U 23111A   24007.42587608  .00000092  00000+0  64367-4 0  9996
2 57490  98.7917  77.9112 0001254 138.7920 221.3351 14.19751417 22312
TIANMU-1 11             
1 58645U 23205A   24007.50301981  .00003989  00000+0  22490-3 0  9998
2 58645  97.4207  36.7720 0010305 226.4293 133.6083 15.13699625  2048
TIANMU-1 12             
1 58646U 23205B   24007.50491318  .00004032  00000+0  22814-3 0  9993
2 58646  97.4192  36.7669 0009572 223.5821 136.4655 15.13574318  2039
TIANMU-1 13             
1 58647U 23205C   24007.50729353  .00003873  00000+0  22083-3 0  9997
2 58647  97.4222  36.7695 0010026 213.0155 147.0451 15.13314082  2035
TIANMU-1 14             
1 58648U 23205D   24007.50527936  .00004016  00000+0  22736-3 0  9996
2 58648  97.4147  36.7581 0010037 218.5508 141.5007 15.13548698  2038
TIANMU-1 19             
1 58660U 23208A   24007.50000223  .00004856  00000+0  27238-3 0  9992
2 58660  97.4000 124.3367 0010733 210.9759 149.0841 15.13776850  1708
